FENGYUN 1C DEB          
1 30092U 99025QV  17345.82125443  .00000237  00000-0  10149-3 0  9998
2 30092  98.6909  80.6570 0094101 196.7247 279.0056 14.31266939568804
